{
  "norad_id": 49071,
  "name": "TIANHUI 2-02A",
  "history": [
    {
      "epoch": "2026-03-27T12:31:34.174848Z",
      "apogee_km": 516.753505053829,
      "perigee_km": 514.6660482498582,
      "latitude_deg": -4.6195003346952395e-05,
      "longitude_deg": 77.97328977533317,
      "height_km": 518.9100048664001,
      "semi_major_axis_km": 6893.846776651843,
      "eccentricity": 0.0001514,
      "inclination_deg": 97.4827,
      "raan_deg": 90.8212,
      "arg_perigee_deg": 96.5405,
      "mean_anomaly_deg": 263.6,
      "mean_motion_rev_day": 15.16737143
    }
  ]
}