{"fetched_at":"2026-03-29T02:12:04Z","count":15717,"tles":[{"name":"TIANHUI 2-02A","line1":"1 49071U 21074A   26086.52192332  .00001973  00000+0  10404-3 0  9995","line2":"2 49071  97.4827  90.8212 0001514  96.5405 263.6000 15.16737143254895","category":"Other"}]}